TIANHUI 5A              
1 58199U 23168A   26068.59224024  .00000658  00000+0  78424-4 0  9999
2 58199  97.8216  77.3850 0001554  89.7041 270.4353 14.87579260127790
TIANHUI 5B              
1 58201U 23168C   26068.52497678  .00000649  00000+0  77374-4 0  9996
2 58201  97.8217  77.3226 0002138  97.0143 263.1317 14.87579039127788
