[{"OBJECT_NAME":"TIANHUI 5A","OBJECT_ID":"2023-168A","EPOCH":"2026-03-09T14:12:49.556736","MEAN_MOTION":14.8757926,"ECCENTRICITY":0.0001554,"INCLINATION":97.8216,"RA_OF_ASC_NODE":77.385,"ARG_OF_PERICENTER":89.7041,"MEAN_ANOMALY":270.4353,"EPHEMERIS_TYPE":0,"CLASSIFICATION_TYPE":"U","NORAD_CAT_ID":58199,"ELEMENT_SET_NO":999,"REV_AT_EPOCH":12779,"BSTAR":7.8424e-5,"MEAN_MOTION_DOT":6.58e-6,"MEAN_MOTION_DDOT":0},{"OBJECT_NAME":"TIANHUI 5B","OBJECT_ID":"2023-168C","EPOCH":"2026-03-09T12:35:57.993792","MEAN_MOTION":14.87579039,"ECCENTRICITY":0.0002138,"INCLINATION":97.8217,"RA_OF_ASC_NODE":77.3226,"ARG_OF_PERICENTER":97.0143,"MEAN_ANOMALY":263.1317,"EPHEMERIS_TYPE":0,"CLASSIFICATION_TYPE":"U","NORAD_CAT_ID":58201,"ELEMENT_SET_NO":999,"REV_AT_EPOCH":12778,"BSTAR":7.7374e-5,"MEAN_MOTION_DOT":6.49e-6,"MEAN_MOTION_DDOT":0}]
